ALOS (DAICHI)           
1 28931U 06002A   26061.62711135  .00001756  00000+0  30250-3 0  9993
2 28931  98.1205  17.6187 0001207  51.6511 308.4803 14.69782255 72441
H-2A R/B                
1 28932U 06002B   26061.41624412  .00012304  00000+0  61844-3 0  9996
2 28932  98.2393 207.8164 0051963 266.0614  93.4675 15.16231157 93331
RESURS-DK 1             
1 29228U 06021A   26061.59232097  .00003162  00000+0  18636-3 0  9992
2 29228  69.9302 255.3835 0002486 165.4863 194.6375 15.12688019 86457
CZ-4B R/B               
1 29507U 06046C   26061.61666157  .00005713  00000+0  29045-3 0  9990
2 29507  97.5608 106.5443 0031858 293.0999  66.6877 15.16815366 58970
CZ-2C R/B               
1 31114U 07010B   26061.53997117  .00000148  00000+0  87183-4 0  9998
2 31114  98.3977 175.1774 0058095 315.7784  43.8758 14.20243217978701
COSMO-SKYMED 1          
1 31598U 07023A   26061.64376745  .00003806  00000+0  34048-3 0  9993
2 31598  97.8863 252.6201 0000845  85.7491 274.3827 14.96467908 13852
COSMOS 2428             
1 31792U 07029A   26061.59680372  .00000086  00000+0  71729-4 0  9998
2 31792  70.9419 218.2306 0008716 284.6688  75.3466 14.12944217963093
SL-16 R/B               
1 31793U 07029B   26061.62514763 -.00000191  00000+0 -74381-4 0  9999
2 31793  70.9755 187.2334 0002418 278.3408  92.5726 14.14834131964373
KORONAS-FOTON           
1 33504U 09003A   26061.63173174  .00013029  00000+0  29303-3 0  9998
2 33504  82.4283 283.2163 0010681 173.7713 186.3669 15.43117190944653
CZ-2C R/B               
1 37731U 11030B   26061.67478418  .00002202  00000+0  28313-3 0  9991
2 37731  97.8529  19.0788 0053071  14.8675 157.6655 14.81188048789050
H-2A R/B                
1 38341U 12025E   26061.63463070  .00004945  00000+0  44876-3 0  9996
2 38341  98.4710  28.1165 0044038 337.5708  22.3584 14.95090494747169
SHIJIAN-16 (SJ-16)      
1 39358U 13057A   26061.65689227  .00001748  00000+0  17355-3 0  9997
2 39358  74.9721 198.4002 0015790 130.8779 229.3781 14.92299904670454
