CCSDS_OMM_VERS = 2.0
CREATION_DATE  = 
ORIGINATOR     = 

OBJECT_NAME    = ALOS (DAICHI)
OBJECT_ID      = 2006-002A
CENTER_NAME    = EARTH
REF_FRAME      = TEME
TIME_SYSTEM    = UTC
MEAN_ELEMENT_THEORY = SGP/SGP4

EPOCH          = 2026-03-02T15:03:02.420640
MEAN_MOTION    = 14.69782255
ECCENTRICITY   = .00012076
INCLINATION    = 98.1205
RA_OF_ASC_NODE = 17.6187
ARG_OF_PERICENTER = 51.6511
MEAN_ANOMALY   = 308.4803

EPHEMERIS_TYPE = 0
CLASSIFICATION_TYPE = U
NORAD_CAT_ID   = 28931
ELEMENT_SET_NO = 999
REV_AT_EPOCH   = 7244
BSTAR          = .30249601E-3
MEAN_MOTION_DOT = .1756E-4
MEAN_MOTION_DDOT = 0

CCSDS_OMM_VERS = 2.0
CREATION_DATE  = 
ORIGINATOR     = 

OBJECT_NAME    = H-2A R/B
OBJECT_ID      = 2006-002B
CENTER_NAME    = EARTH
REF_FRAME      = TEME
TIME_SYSTEM    = UTC
MEAN_ELEMENT_THEORY = SGP/SGP4

EPOCH          = 2026-03-02T09:59:23.491968
MEAN_MOTION    = 15.16231157
ECCENTRICITY   = .00519632
INCLINATION    = 98.2393
RA_OF_ASC_NODE = 207.8164
ARG_OF_PERICENTER = 266.0614
MEAN_ANOMALY   = 93.4675

EPHEMERIS_TYPE = 0
CLASSIFICATION_TYPE = U
NORAD_CAT_ID   = 28932
ELEMENT_SET_NO = 999
REV_AT_EPOCH   = 9333
BSTAR          = .61844318E-3
MEAN_MOTION_DOT = .12304E-3
MEAN_MOTION_DDOT = 0

CCSDS_OMM_VERS = 2.0
CREATION_DATE  = 
ORIGINATOR     = 

OBJECT_NAME    = RESURS-DK 1
OBJECT_ID      = 2006-021A
CENTER_NAME    = EARTH
REF_FRAME      = TEME
TIME_SYSTEM    = UTC
MEAN_ELEMENT_THEORY = SGP/SGP4

EPOCH          = 2026-03-02T14:12:56.531808
MEAN_MOTION    = 15.12688019
ECCENTRICITY   = .00024869
INCLINATION    = 69.9302
RA_OF_ASC_NODE = 255.3835
ARG_OF_PERICENTER = 165.4863
MEAN_ANOMALY   = 194.6375

EPHEMERIS_TYPE = 0
CLASSIFICATION_TYPE = U
NORAD_CAT_ID   = 29228
ELEMENT_SET_NO = 999
REV_AT_EPOCH   = 8645
BSTAR          = .18635544E-3
MEAN_MOTION_DOT = .3162E-4
MEAN_MOTION_DDOT = 0

CCSDS_OMM_VERS = 2.0
CREATION_DATE  = 
ORIGINATOR     = 

OBJECT_NAME    = CZ-4B R/B
OBJECT_ID      = 2006-046C
CENTER_NAME    = EARTH
REF_FRAME      = TEME
TIME_SYSTEM    = UTC
MEAN_ELEMENT_THEORY = SGP/SGP4

EPOCH          = 2026-03-02T14:47:59.559648
MEAN_MOTION    = 15.16815366
ECCENTRICITY   = .00318586
INCLINATION    = 97.5608
RA_OF_ASC_NODE = 106.5443
ARG_OF_PERICENTER = 293.0999
MEAN_ANOMALY   = 66.6877

EPHEMERIS_TYPE = 0
CLASSIFICATION_TYPE = U
NORAD_CAT_ID   = 29507
ELEMENT_SET_NO = 999
REV_AT_EPOCH   = 5897
BSTAR          = .29045481E-3
MEAN_MOTION_DOT = .5713E-4
MEAN_MOTION_DDOT = 0

CCSDS_OMM_VERS = 2.0
CREATION_DATE  = 
ORIGINATOR     = 

OBJECT_NAME    = CZ-2C R/B
OBJECT_ID      = 2007-010B
CENTER_NAME    = EARTH
REF_FRAME      = TEME
TIME_SYSTEM    = UTC
MEAN_ELEMENT_THEORY = SGP/SGP4

EPOCH          = 2026-03-02T12:57:33.509088
MEAN_MOTION    = 14.20243217
ECCENTRICITY   = .00580953
INCLINATION    = 98.3977
RA_OF_ASC_NODE = 175.1774
ARG_OF_PERICENTER = 315.7784
MEAN_ANOMALY   = 43.8758

EPHEMERIS_TYPE = 0
CLASSIFICATION_TYPE = U
NORAD_CAT_ID   = 31114
ELEMENT_SET_NO = 999
REV_AT_EPOCH   = 97870
BSTAR          = .8718263E-4
MEAN_MOTION_DOT = .148E-5
MEAN_MOTION_DDOT = 0

CCSDS_OMM_VERS = 2.0
CREATION_DATE  = 
ORIGINATOR     = 

OBJECT_NAME    = COSMO-SKYMED 1
OBJECT_ID      = 2007-023A
CENTER_NAME    = EARTH
REF_FRAME      = TEME
TIME_SYSTEM    = UTC
MEAN_ELEMENT_THEORY = SGP/SGP4

EPOCH          = 2026-03-02T15:27:01.507680
MEAN_MOTION    = 14.96467908
ECCENTRICITY   = .00008456
INCLINATION    = 97.8863
RA_OF_ASC_NODE = 252.6201
ARG_OF_PERICENTER = 85.7491
MEAN_ANOMALY   = 274.3827

EPHEMERIS_TYPE = 0
CLASSIFICATION_TYPE = U
NORAD_CAT_ID   = 31598
ELEMENT_SET_NO = 999
REV_AT_EPOCH   = 1385
BSTAR          = .34048167E-3
MEAN_MOTION_DOT = .3806E-4
MEAN_MOTION_DDOT = 0

CCSDS_OMM_VERS = 2.0
CREATION_DATE  = 
ORIGINATOR     = 

OBJECT_NAME    = COSMOS 2428
OBJECT_ID      = 2007-029A
CENTER_NAME    = EARTH
REF_FRAME      = TEME
TIME_SYSTEM    = UTC
MEAN_ELEMENT_THEORY = SGP/SGP4

EPOCH          = 2026-03-02T14:19:23.841408
MEAN_MOTION    = 14.12944217
ECCENTRICITY   = .00087164
INCLINATION    = 70.9419
RA_OF_ASC_NODE = 218.2306
ARG_OF_PERICENTER = 284.6688
MEAN_ANOMALY   = 75.3466

EPHEMERIS_TYPE = 0
CLASSIFICATION_TYPE = U
NORAD_CAT_ID   = 31792
ELEMENT_SET_NO = 999
REV_AT_EPOCH   = 96309
BSTAR          = .71729119E-4
MEAN_MOTION_DOT = .86E-6
MEAN_MOTION_DDOT = 0

CCSDS_OMM_VERS = 2.0
CREATION_DATE  = 
ORIGINATOR     = 

OBJECT_NAME    = SL-16 R/B
OBJECT_ID      = 2007-029B
CENTER_NAME    = EARTH
REF_FRAME      = TEME
TIME_SYSTEM    = UTC
MEAN_ELEMENT_THEORY = SGP/SGP4

EPOCH          = 2026-03-02T15:00:12.755232
MEAN_MOTION    = 14.14834131
ECCENTRICITY   = .00024181
INCLINATION    = 70.9755
RA_OF_ASC_NODE = 187.2334
ARG_OF_PERICENTER = 278.3408
MEAN_ANOMALY   = 92.5726

EPHEMERIS_TYPE = 0
CLASSIFICATION_TYPE = U
NORAD_CAT_ID   = 31793
ELEMENT_SET_NO = 999
REV_AT_EPOCH   = 96437
BSTAR          = -.74380919E-4
MEAN_MOTION_DOT = -.191E-5
MEAN_MOTION_DDOT = 0

CCSDS_OMM_VERS = 2.0
CREATION_DATE  = 
ORIGINATOR     = 

OBJECT_NAME    = KORONAS-FOTON
OBJECT_ID      = 2009-003A
CENTER_NAME    = EARTH
REF_FRAME      = TEME
TIME_SYSTEM    = UTC
MEAN_ELEMENT_THEORY = SGP/SGP4

EPOCH          = 2026-03-02T15:09:41.622336
MEAN_MOTION    = 15.43117190
ECCENTRICITY   = .00106814
INCLINATION    = 82.4283
RA_OF_ASC_NODE = 283.2163
ARG_OF_PERICENTER = 173.7713
MEAN_ANOMALY   = 186.3669

EPHEMERIS_TYPE = 0
CLASSIFICATION_TYPE = U
NORAD_CAT_ID   = 33504
ELEMENT_SET_NO = 999
REV_AT_EPOCH   = 94465
BSTAR          = .29302653E-3
MEAN_MOTION_DOT = .13029E-3
MEAN_MOTION_DDOT = 0

CCSDS_OMM_VERS = 2.0
CREATION_DATE  = 
ORIGINATOR     = 

OBJECT_NAME    = CZ-2C R/B
OBJECT_ID      = 2011-030B
CENTER_NAME    = EARTH
REF_FRAME      = TEME
TIME_SYSTEM    = UTC
MEAN_ELEMENT_THEORY = SGP/SGP4

EPOCH          = 2026-03-02T16:11:41.353152
MEAN_MOTION    = 14.81188048
ECCENTRICITY   = .00530715
INCLINATION    = 97.8529
RA_OF_ASC_NODE = 19.0788
ARG_OF_PERICENTER = 14.8675
MEAN_ANOMALY   = 157.6655

EPHEMERIS_TYPE = 0
CLASSIFICATION_TYPE = U
NORAD_CAT_ID   = 37731
ELEMENT_SET_NO = 999
REV_AT_EPOCH   = 78905
BSTAR          = .28312843E-3
MEAN_MOTION_DOT = .2202E-4
MEAN_MOTION_DDOT = 0

CCSDS_OMM_VERS = 2.0
CREATION_DATE  = 
ORIGINATOR     = 

OBJECT_NAME    = H-2A R/B
OBJECT_ID      = 2012-025E
CENTER_NAME    = EARTH
REF_FRAME      = TEME
TIME_SYSTEM    = UTC
MEAN_ELEMENT_THEORY = SGP/SGP4

EPOCH          = 2026-03-02T15:13:52.092480
MEAN_MOTION    = 14.95090494
ECCENTRICITY   = .00440387
INCLINATION    = 98.4710
RA_OF_ASC_NODE = 28.1165
ARG_OF_PERICENTER = 337.5708
MEAN_ANOMALY   = 22.3584

EPHEMERIS_TYPE = 0
CLASSIFICATION_TYPE = U
NORAD_CAT_ID   = 38341
ELEMENT_SET_NO = 999
REV_AT_EPOCH   = 74716
BSTAR          = .4487578E-3
MEAN_MOTION_DOT = .4945E-4
MEAN_MOTION_DDOT = 0

CCSDS_OMM_VERS = 2.0
CREATION_DATE  = 
ORIGINATOR     = 

OBJECT_NAME    = SHIJIAN-16 (SJ-16)
OBJECT_ID      = 2013-057A
CENTER_NAME    = EARTH
REF_FRAME      = TEME
TIME_SYSTEM    = UTC
MEAN_ELEMENT_THEORY = SGP/SGP4

EPOCH          = 2026-03-02T15:45:55.492128
MEAN_MOTION    = 14.92299904
ECCENTRICITY   = .00157906
INCLINATION    = 74.9721
RA_OF_ASC_NODE = 198.4002
ARG_OF_PERICENTER = 130.8779
MEAN_ANOMALY   = 229.3781

EPHEMERIS_TYPE = 0
CLASSIFICATION_TYPE = U
NORAD_CAT_ID   = 39358
ELEMENT_SET_NO = 999
REV_AT_EPOCH   = 67045
BSTAR          = .1735533E-3
MEAN_MOTION_DOT = .1748E-4
MEAN_MOTION_DDOT = 0

